OBJECT_NAME,OBJECT_ID,EPOCH,MEAN_MOTION,ECCENTRICITY,INCLINATION,RA_OF_ASC_NODE,ARG_OF_PERICENTER,MEAN_ANOMALY,EPHEMERIS_TYPE,CLASSIFICATION_TYPE,NORAD_CAT_ID,ELEMENT_SET_NO,REV_AT_EPOCH,BSTAR,MEAN_MOTION_DOT,MEAN_MOTION_DDOT
DX1,2014-037C,2026-07-04T14:52:57.631008,14.90033832,.00063159,98.3879,148.3811,206.5572,153.5321,0,U,40071,999,64870,.14178582E-4,.74E-6,0
UKUBE-1,2014-037F,2026-07-03T23:00:56.825856,15.13812565,.0003183,98.4240,189.9960,106.0506,254.1073,0,U,40074,999,65109,.56511727E-3,.10136E-3,0
GAOFEN-2,2014-049A,2026-07-04T14:36:32.307264,14.80919720,.00074191,98.0098,249.7990,165.8551,194.2870,0,U,40118,999,64181,.17041832E-3,.1265E-4,0
BRITE-PL2 (HEWELIUSZ),2014-049B,2026-07-04T01:02:11.887296,14.94655576,.00150118,97.9112,297.1746,57.2784,302.9880,0,U,40119,999,64396,.20566641E-3,.2174E-4,0
CBERS 4,2014-079A,2026-07-04T14:26:59.160768,14.35514992,.00012608,98.3519,241.8871,51.1520,308.9779,0,U,40336,999,60645,.14327798E-3,.37E-5,0
SMAP,2015-003A,2026-07-04T10:44:15.392832,14.63382373,.00015039,98.1278,192.2975,97.9514,262.1859,0,U,40376,999,61014,.1099477E-3,.521E-5,0
GONETS-M 11,2015-020A,2026-07-04T15:17:45.044160,12.42878070,.00157747,82.4857,20.1156,327.6349,32.3762,0,U,40552,999,51090,.12835358E-3,.28E-6,0
GONETS-M 12,2015-020B,2026-07-04T14:39:18.297216,12.42892088,.00145261,82.4889,21.2607,312.0333,47.9509,0,U,40553,999,51089,.63420826E-3,.98E-6,0
GONETS-M 13,2015-020C,2026-07-04T14:01:32.242080,12.42871973,.001293,82.4852,19.8870,296.4659,63.5094,0,U,40554,999,51086,.87227222E-3,.131E-5,0
DMC3-FM1,2015-032A,2026-07-04T13:56:42.919584,14.85758514,.00058144,97.6435,50.0716,12.4007,347.7351,0,U,40715,999,59249,.10366062E-3,.849E-5,0
DMC3-FM2,2015-032B,2026-07-04T14:28:22.071936,14.85766263,.00065681,97.6490,51.6786,16.4262,343.7165,0,U,40716,999,59249,.11352587E-3,.935E-5,0
DMC3-FM3,2015-032C,2026-07-04T15:02:08.317824,14.85751389,.0005781,97.6541,53.4653,17.3441,342.7971,0,U,40717,999,59250,-.6818568E-5,-.111E-5,0
CARBONITE 1 (CBNT-1),2015-032D,2026-07-04T13:59:48.791904,14.83641090,.00131335,97.6513,2.9213,234.5332,125.4658,0,U,40718,999,59192,.23208424E-3,.1867E-4,0
DEORBITSAIL,2015-032E,2026-07-04T07:44:44.438784,15.04109627,.00131431,97.5884,41.8274,167.3778,192.7780,0,U,40719,999,59382,.80218632E-3,.11086E-3,0
2015-049G,2015-049G,2026-07-04T14:36:19.342080,15.67947146,.00065877,97.4535,230.7465,143.3987,216.7725,0,U,40905,999,59917,.66607373E-3,.73965E-3,0
LILACSAT-2,2015-049K,2026-07-04T14:51:39.083904,15.52051783,.00074747,97.4623,223.1276,174.2311,185.9029,0,U,40908,999,59845,.47879561E-3,.28852E-3,0
COSMOS 2507 (RODNIK-S 13),2015-050A,2026-07-04T14:51:23.380704,12.42927677,.00094154,82.4915,68.8167,318.4034,41.6329,0,U,40920,999,48902,.92575858E-3,.138E-5,0
COSMOS 2508 (RODNIK-S 14),2015-050B,2026-07-04T15:42:46.289952,12.42915473,.00144331,82.4867,67.2927,350.1303,9.9491,0,U,40921,999,48901,.14710481E-2,.214E-5,0
COSMOS 2509 (RODNIK-S 15),2015-050C,2026-07-04T16:12:40.722048,12.42884668,.00151083,82.4875,67.3841,6.8846,353.2438,0,U,40922,999,48905,.89221187E-3,.133E-5,0
LQSAT,2015-057A,2026-07-04T14:50:42.757152,14.76805258,.00159438,97.6684,178.1311,211.6334,148.3920,0,U,40958,999,57788,.14378251E-3,.962E-5,0
LINGQIAO VIDEO A,2015-057B,2026-07-04T15:10:18.164352,14.77416525,.00157304,97.6626,179.5741,208.4041,151.6314,0,U,40959,999,57798,.1275876E-3,.861E-5,0
LINGQIAO VIDEO B,2015-057C,2026-07-04T14:34:54.576768,14.77520434,.00159173,97.6590,180.7095,208.6379,151.3960,0,U,40960,999,57802,.75313094E-4,.49E-5,0
JILIN-1,2015-057D,2026-07-04T11:28:12.734688,14.78190679,.00162289,97.6512,183.9865,202.1461,157.9052,0,U,40961,999,57816,.17899451E-3,.1251E-4,0
FOX-1A (AO-85),2015-058D,2026-07-04T12:33:30.252384,14.91048439,.01315515,64.7734,225.1060,49.8694,311.3855,0,U,40967,999,11615,.3512886E-3,.394E-4,0
SINOD-D 1,2015-058E,2026-07-04T11:01:51.206880,14.96014874,.01202363,64.7732,204.8176,46.2759,314.8236,0,U,40968,999,11924,.40461129E-3,.5092E-4,0
ELEKTRO-L 2,2015-074A,2026-07-03T22:25:13.336896,1.00273831,.00006313,6.7340,70.3182,256.9138,276.4845,0,U,41105,999,3867,0,-.108E-5,0
DAMPE,2015-078A,2026-07-04T14:54:50.008896,15.30829749,.00127518,97.4556,191.1744,22.1200,338.0589,0,U,41173,999,58721,.34053438E-4,.938E-5,0
ORBCOMM FM114,2015-081A,2026-07-04T07:20:05.547264,14.58879126,.00030793,47.0046,281.0707,269.5400,90.5133,0,U,41179,999,56025,.15110149E-3,.543E-5,0
ORBCOMM FM110,2015-081D,2026-07-04T13:37:25.987296,14.58909708,.0003016,47.0022,279.2626,174.8918,185.1999,0,U,41182,999,56016,.25086125E-3,.1016E-4,0
ORBCOMM FM112,2015-081F,2026-07-04T09:37:06.839904,14.58924251,.00041162,46.9970,188.8469,285.1496,74.8934,0,U,41184,999,56146,.16692055E-3,.619E-5,0
ORBCOMM FM113,2015-081G,2026-07-04T10:42:53.665344,14.58873789,.00026063,46.9987,189.0158,283.6685,76.3911,0,U,41185,999,56145,.1212226E-3,.402E-5,0
ORBCOMM FM108,2015-081J,2026-07-04T11:27:03.919680,14.58898787,.00031055,47.0046,100.4489,284.1210,75.9331,0,U,41187,999,56260,.24837339E-3,.1004E-4,0
ORBCOMM FM117,2015-081K,2026-07-04T04:03:06.807456,14.58884146,.00035691,47.0009,100.5362,287.8149,72.2347,0,U,41188,999,56260,.18967756E-3,.726E-5,0
ORBCOMM FM116,2015-081L,2026-07-04T10:09:06.434496,14.58899524,.0001092,47.0003,189.1243,197.0063,163.0787,0,U,41189,999,56145,.10515558E-3,.326E-5,0
CHUBUSAT-2,2016-012B,2026-07-04T09:41:45.803904,15.21056378,.00088291,30.9961,208.3913,253.3122,106.6550,0,U,41338,999,57104,.28709448E-3,.6664E-4,0
CHUBUSAT-3,2016-012C,2026-07-04T11:46:40.880352,15.18699399,.0009094,31.0037,217.8207,240.0560,119.9177,0,U,41339,999,57083,.20167397E-3,.4403E-4,0
ZIYUAN 3-02 (ZY 3-02),2016-033A,2026-07-04T14:53:27.979008,15.21356513,.00130294,97.3827,261.0596,223.2718,136.7495,0,U,41556,999,56063,.44291586E-3,.9882E-4,0
CARTOSAT-2C,2016-040A,2026-07-04T02:51:55.825632,15.19193846,.00101241,97.4470,244.8641,78.4182,281.8189,0,U,41599,999,55628,.26710632E-3,.556E-4,0
LAPAN-A3,2016-040E,2026-07-04T14:49:11.486784,15.33225973,.00087335,97.1497,181.1919,321.7541,38.3081,0,U,41603,999,55748,.18382177E-3,.5832E-4,0
GAOFEN-3,2016-049A,2026-07-04T15:16:42.672000,14.42217295,.0001695,98.4010,193.1591,92.2838,267.8546,0,U,41727,999,52116,-.7530484E-5,-.68E-6,0
PRATHAM,2016-059A,2026-07-04T10:18:37.782144,14.67216000,.00316666,97.8328,181.5301,161.1507,199.0878,0,U,41783,999,52204,.14743971E-3,.789E-5,0
ALSAT-1N,2016-059G,2026-07-04T14:48:55.425888,14.69335140,.002696,97.8003,188.1924,129.8054,230.5532,0,U,41789,999,52256,.17105472E-3,.969E-5,0
CAS-2T & KS-1Q,2016-066G,2026-07-04T11:39:48.526848,14.44750691,.03427469,98.3815,261.0243,77.1704,286.7545,0,U,41847,999,50729,.24203059E-3,.1682E-4,0
YUNHAI-1 01,2016-068A,2026-07-04T15:04:46.447104,14.32714890,.00039516,98.5839,196.4711,17.7672,342.3649,0,U,41857,999,50432,.40808343E-4,.67E-6,0
RESOURCESAT-2A,2016-074A,2026-07-04T14:18:14.249664,14.21607933,.00029583,98.7522,258.9581,49.9415,310.2022,0,U,41877,999,49677,.24172249E-3,.486E-5,0
TANSAT,2016-081A,2026-07-04T15:45:19.229184,14.59965053,.00191103,98.5364,186.4307,254.8134,105.0952,0,U,41898,999,50717,.85866313E-4,.362E-5,0
JILIN-1 03,2017-002B,2026-07-04T11:37:57.914976,15.42018278,.00079912,97.1947,192.3293,107.5996,252.6125,0,U,41914,999,52452,.5687263E-3,.24243E-3,0
CARTOSAT-2D,2017-008A,2026-07-04T14:41:46.468032,15.19224496,.00050666,97.4092,244.5926,169.1698,190.9646,0,U,41948,999,52022,.3783918E-3,.7907E-4,0
CARTOSAT-2E,2017-036C,2026-07-03T15:24:38.922624,15.19298181,.00024899,97.4262,244.1738,235.4252,124.6748,0,U,42767,999,50064,.32508747E-3,.6795E-4,0
D-SAT,2017-036AF,2026-07-04T09:04:25.663584,15.17264984,.00832471,97.5570,164.2477,102.0028,259.0551,0,U,42794,999,49346,.47435506E-3,.10266E-3,0
IRIDIUM 113,2017-039A,2026-07-04T14:42:18.888768,14.34220433,.00021845,86.3988,314.8947,90.7201,269.4245,0,U,42803,999,47368,.12112673E-3,.359E-5,0
NORSAT 2,2017-042D,2026-07-04T10:46:47.102592,15.22265960,.00091057,97.4051,358.6195,358.8567,1.2646,0,U,42828,999,49036,.65642679E-3,.1507E-3,0
TECHNOSAT,2017-042E,2026-07-03T20:54:08.902368,15.05054378,.0018427,97.4295,341.8960,40.8087,319.4516,0,U,42829,999,48921,.23450779E-3,.3285E-4,0
FLYING LAPTOP,2017-042G,2026-07-04T15:34:50.421216,15.01257840,.00199282,97.4771,340.5188,66.0616,294.2694,0,U,42831,999,48907,.22589085E-3,.2857E-4,0
WNISAT 1R,2017-042L,2026-07-04T09:58:10.960896,15.01835132,.00119058,97.4840,340.9224,96.7798,263.4783,0,U,42835,999,48909,.20845862E-3,.2666E-4,0
LEMUR-2-GREENBERG,2017-042N,2026-07-04T11:10:53.955264,15.31879629,.00072799,97.3827,6.0171,305.7985,54.2579,0,U,42837,999,49103,.8094247E-3,.24909E-3,0
LEMUR-2-FURIAUS,2017-042R,2026-07-04T05:02:39.733440,15.30826092,.00069078,97.3776,3.6789,12.1279,348.0127,0,U,42840,999,49081,.81030711E-3,.24129E-3,0
CORVUS BC2,2017-042X,2026-07-04T09:35:27.411648,15.06405436,.00139663,97.4083,346.0818,56.8033,303.4532,0,U,42846,999,48965,.35041268E-3,.5115E-4,0
CORVUS BC1,2017-042Y,2026-07-04T09:24:57.360384,15.06574092,.00125265,97.4119,346.9003,35.6313,324.5749,0,U,42847,999,48968,.32203847E-3,.4715E-4,0
VRSS-2,2017-060A,2026-07-04T14:47:02.487264,14.81225600,.00183181,97.6498,222.5577,46.5664,313.7070,0,U,42954,999,47103,.16481011E-3,.1237E-4,0
MOHAMMED VI-A,2017-070A,2026-07-04T14:53:45.413664,14.77092093,.00011505,97.9551,257.7116,83.6281,276.5061,0,U,43005,999,46655,.1287714E-3,.859E-5,0
FENGYUN 3D,2017-072A,2026-07-04T15:00:07.464096,14.19743009,.00020249,99.0138,160.3632,33.6533,326.4770,0,U,43010,999,44746,.10964412E-3,.186E-5,0
CZ-4C R/B,2017-072C,2026-07-04T12:45:28.404864,14.58803240,.01235651,98.5809,294.0998,98.4587,263.0639,0,U,43012,999,45916,.15023887E-3,.725E-5,0
NOAA 20 (JPSS-1),2017-073A,2026-07-04T14:56:59.483616,14.19515144,.00009568,98.7772,124.9308,132.9993,227.1264,0,U,43013,999,44694,.67612638E-4,.98E-6,0
MAKERSAT 0,2017-073D,2026-07-03T15:15:45.488160,15.32642938,.01049552,97.4595,67.2865,213.5729,145.8834,0,U,43016,999,46898,.55467001E-3,.20784E-3,0
